{
    "links": {
        "self": "http://www.neowsapp.com/rest/v1/neo/3892660?api_key=iIulBulltgU6a56xZRHN4H3l9WmuAYTsLGpBGhQ2"
    },
    "id": "3892660",
    "neo_reference_id": "3892660",
    "name": "(2019 VN2)",
    "designation": "2019 VN2",
    "nasa_jpl_url": "http://ssd.jpl.nasa.gov/sbdb.cgi?sstr=3892660",
    "absolute_magnitude_h": 26.8,
    "estimated_diameter": {
        "kilometers": {
            "estimated_diameter_min": 0.0116025908,
            "estimated_diameter_max": 0.0259441818
        },
        "meters": {
            "estimated_diameter_min": 11.6025908209,
            "estimated_diameter_max": 25.9441817907
        },
        "miles": {
            "estimated_diameter_min": 0.0072095135,
            "estimated_diameter_max": 0.0161209622
        },
        "feet": {
            "estimated_diameter_min": 38.066244069,
            "estimated_diameter_max": 85.1187093863
        }
    },
    "is_potentially_hazardous_asteroid": false,
    "close_approach_data": [
        {
            "close_approach_date": "1911-09-14",
            "close_approach_date_full": "1911-Sep-14 19:35",
            "epoch_date_close_approach": -1839731100000,
            "relative_velocity": {
                "kilometers_per_second": "18.3149461392",
                "kilometers_per_hour": "65933.8061012986",
                "miles_per_hour": "40968.7030188874"
            },
            "miss_distance": {
                "astronomical": "0.4876966283",
                "lunar": "189.7139884087",
                "kilometers": "72958376.799861721",
                "miles": "45334233.1671089098"
            },
            "orbiting_body": "Earth"
        },
        {
            "close_approach_date": "2019-11-12",
            "close_approach_date_full": "2019-Nov-12 12:36",
            "epoch_date_close_approach": 1573562160000,
            "relative_velocity": {
                "kilometers_per_second": "3.7681976177",
                "kilometers_per_hour": "13565.5114235525",
                "miles_per_hour": "8429.081250929"
            },
            "miss_distance": {
                "astronomical": "0.040949546",
                "lunar": "15.929373394",
                "kilometers": "6125964.85906702",
                "miles": "3806498.053764076"
            },
            "orbiting_body": "Earth"
        },
        {
            "close_approach_date": "2044-03-22",
            "close_approach_date_full": "2044-Mar-22 06:38",
            "epoch_date_close_approach": 2342241480000,
            "relative_velocity": {
                "kilometers_per_second": "6.8420474764",
                "kilometers_per_hour": "24631.3709150531",
                "miles_per_hour": "15304.9759999673"
            },
            "miss_distance": {
                "astronomical": "0.0661181661",
                "lunar": "25.7199666129",
                "kilometers": "9891136.816866207",
                "miles": "6146067.4210673766"
            },
            "orbiting_body": "Mars"
        },
        {
            "close_approach_date": "2059-12-31",
            "close_approach_date_full": "2059-Dec-31 23:45",
            "epoch_date_close_approach": 2840139900000,
            "relative_velocity": {
                "kilometers_per_second": "7.0666836945",
                "kilometers_per_hour": "25440.0613003745",
                "miles_per_hour": "15807.4647563355"
            },
            "miss_distance": {
                "astronomical": "0.0345274492",
                "lunar": "13.4311777388",
                "kilometers": "5165232.856853204",
                "miles": "3209526.8695100552"
            },
            "orbiting_body": "Mars"
        },
        {
            "close_approach_date": "2125-02-08",
            "close_approach_date_full": "2125-Feb-08 15:55",
            "epoch_date_close_approach": 4894703700000,
            "relative_velocity": {
                "kilometers_per_second": "7.3956231286",
                "kilometers_per_hour": "26624.2432627837",
                "miles_per_hour": "16543.2693762558"
            },
            "miss_distance": {
                "astronomical": "0.0493512673",
                "lunar": "19.1976429797",
                "kilometers": "7382844.469880651",
                "miles": "4587486.8289929438"
            },
            "orbiting_body": "Mars"
        }
    ],
    "orbital_data": {
        "orbit_id": "1",
        "orbit_determination_date": "2019-11-05 09:12:03",
        "first_observation_date": "2019-11-04",
        "last_observation_date": "2019-11-05",
        "data_arc_in_days": 1,
        "observations_used": 16,
        "orbit_uncertainty": "7",
        "minimum_orbit_intersection": ".0404845",
        "jupiter_tisserand_invariant": "4.490",
        "epoch_osculation": "2459000.5",
        "eccentricity": ".3170382437136465",
        "semi_major_axis": "1.49855668613095",
        "inclination": "1.508263522834686",
        "ascending_node_longitude": "350.8489287595858",
        "orbital_period": "670.0515103191009",
        "perihelion_distance": "1.023456906254652",
        "perihelion_argument": "59.85212704662804",
        "aphelion_distance": "1.973656466007249",
        "perihelion_time": "2458801.395176532541",
        "mean_anomaly": "106.9734719561337",
        "mean_motion": ".5372721267780681",
        "equinox": "J2000",
        "orbit_class": {
            "orbit_class_type": "AMO",
            "orbit_class_description": "Near-Earth asteroid orbits similar to that of 1221 Amor",
            "orbit_class_range": "1.017 AU < q (perihelion) < 1.3 AU"
        }
    },
    "is_sentry_object": false
}